{
  "type": "FeatureCollection",
  "features": [
    {
      "type": "Feature",
      "properties": {
        "norad_id": 66814,
        "name": "STARLINK-35984",
        "group": "last-30-days",
        "lat": 39.22385959322988,
        "lon": -116.48602215201049,
        "alt_km": 409.7428973704673,
        "timestamp": "2025-12-24T07:45:04.932746+00:00",
        "meta_object_name": "STARLINK-35984",
        "meta_object_id": "2025-278Z",
        "meta_epoch": "2025-12-23T22:00:01.999584",
        "meta_mean_motion": 15.50507247,
        "meta_eccentricity": 0.00015324,
        "meta_inclination": 43.0001,
        "meta_ra_of_asc_node": 184.7309,
        "meta_arg_of_pericenter": 268.4554,
        "meta_mean_anomaly": 49.0493,
        "meta_ephemeris_type": 0,
        "meta_classification_type": "U",
        "meta_norad_cat_id": 66814,
        "meta_element_set_no": 999,
        "meta_rev_at_epoch": 484,
        "meta_bstar": 0.0014781517,
        "meta_mean_motion_dot": 0.00087122,
        "meta_mean_motion_ddot": 0,
        "tle_line1": "1 66814U 25278Z   25357.91668981  .00087122  00000+0  14782-2 0  9992",
        "tle_line2": "2 66814  43.0001 184.7309 0001532 268.4554  49.0493 15.50507247  4843"
      },
      "geometry": {
        "type": "Point",
        "coordinates": [
          -116.48602215201049,
          39.22385959322988
        ]
      }
    },
    {
      "type": "Feature",
      "properties": {
        "norad_id": 66815,
        "name": "STARLINK-35985",
        "group": "last-30-days",
        "lat": 38.56983329408575,
        "lon": -118.79880025058968,
        "alt_km": 409.73899588256336,
        "timestamp": "2025-12-24T07:45:04.932756+00:00",
        "meta_object_name": "STARLINK-35985",
        "meta_object_id": "2025-278AA",
        "meta_epoch": "2025-12-23T22:00:01.999584",
        "meta_mean_motion": 15.50502164,
        "meta_eccentricity": 0.00014971,
        "meta_inclination": 43.0002,
        "meta_ra_of_asc_node": 184.7362,
        "meta_arg_of_pericenter": 275.4721,
        "meta_mean_anomaly": 40.1148,
        "meta_ephemeris_type": 0,
        "meta_classification_type": "U",
        "meta_norad_cat_id": 66815,
        "meta_element_set_no": 999,
        "meta_rev_at_epoch": 484,
        "meta_bstar": 0.001669863,
        "meta_mean_motion_dot": 0.00098593,
        "meta_mean_motion_ddot": 0,
        "tle_line1": "1 66815U 25278AA  25357.91668981  .00098593  00000+0  16699-2 0  9996",
        "tle_line2": "2 66815  43.0002 184.7362 0001497 275.4721  40.1148 15.50502164  4840"
      },
      "geometry": {
        "type": "Point",
        "coordinates": [
          -118.79880025058968,
          38.56983329408575
        ]
      }
    },
    {
      "type": "Feature",
      "properties": {
        "norad_id": 66816,
        "name": "STARLINK-36098",
        "group": "last-30-days",
        "lat": 35.5233061067078,
        "lon": -127.61420388597686,
        "alt_km": 410.17249075431664,
        "timestamp": "2025-12-24T07:45:04.932766+00:00",
        "meta_object_name": "STARLINK-36098",
        "meta_object_id": "2025-278AB",
        "meta_epoch": "2025-12-23T22:00:01.999584",
        "meta_mean_motion": 15.5050212,
        "meta_eccentricity": 0.00014523,
        "meta_inclination": 43,
        "meta_ra_of_asc_node": 184.756,
        "meta_arg_of_pericenter": 270.2367,
        "meta_mean_anomaly": 37.6822,
        "meta_ephemeris_type": 0,
        "meta_classification_type": "U",
        "meta_norad_cat_id": 66816,
        "meta_element_set_no": 999,
        "meta_rev_at_epoch": 459,
        "meta_bstar": 0.0016727766,
        "meta_mean_motion_dot": 0.00098768,
        "meta_mean_motion_ddot": 0,
        "tle_line1": "1 66816U 25278AB  25357.91668981  .00098768  00000+0  16728-2 0  9994",
        "tle_line2": "2 66816  43.0000 184.7560 0001452 270.2367  37.6822 15.50502120  4593"
      },
      "geometry": {
        "type": "Point",
        "coordinates": [
          -127.61420388597686,
          35.5233061067078
        ]
      }
    },
    {
      "type": "Feature",
      "properties": {
        "norad_id": 66817,
        "name": "STARLINK-35995",
        "group": "last-30-days",
        "lat": 37.129901693400136,
        "lon": -123.29080960419736,
        "alt_km": 409.972934155433,
        "timestamp": "2025-12-24T07:45:04.932778+00:00",
        "meta_object_name": "STARLINK-35995",
        "meta_object_id": "2025-278AC",
        "meta_epoch": "2025-12-23T22:00:01.999584",
        "meta_mean_motion": 15.5049514,
        "meta_eccentricity": 0.00014928,
        "meta_inclination": 43,
        "meta_ra_of_asc_node": 184.7464,
        "meta_arg_of_pericenter": 271.415,
        "meta_mean_anomaly": 40.349,
        "meta_ephemeris_type": 0,
        "meta_classification_type": "U",
        "meta_norad_cat_id": 66817,
        "meta_element_set_no": 999,
        "meta_rev_at_epoch": 475,
        "meta_bstar": 0.0017606383,
        "meta_mean_motion_dot": 0.00104018,
        "meta_mean_motion_ddot": 0,
        "tle_line1": "1 66817U 25278AC  25357.91668981  .00104018  00000+0  17606-2 0  9997",
        "tle_line2": "2 66817  43.0000 184.7464 0001492 271.4150  40.3490 15.50495140  4757"
      },
      "geometry": {
        "type": "Point",
        "coordinates": [
          -123.29080960419736,
          37.129901693400136
        ]
      }
    },
    {
      "type": "Feature",
      "properties": {
        "norad_id": 66818,
        "name": "STARLINK-35994",
        "group": "last-30-days",
        "lat": 36.34871411860499,
        "lon": -125.46894609464401,
        "alt_km": 410.0484761387561,
        "timestamp": "2025-12-24T07:45:04.932788+00:00",
        "meta_object_name": "STARLINK-35994",
        "meta_object_id": "2025-278AD",
        "meta_epoch": "2025-12-23T22:00:01.999584",
        "meta_mean_motion": 15.50499726,
        "meta_eccentricity": 0.00015457,
        "meta_inclination": 43,
        "meta_ra_of_asc_node": 184.7502,
        "meta_arg_of_pericenter": 278.8118,
        "meta_mean_anomaly": 31.0387,
        "meta_ephemeris_type": 0,
        "meta_classification_type": "U",
        "meta_norad_cat_id": 66818,
        "meta_element_set_no": 999,
        "meta_rev_at_epoch": 475,
        "meta_bstar": 0.0015172112,
        "meta_mean_motion_dot": 0.00089436,
        "meta_mean_motion_ddot": 0,
        "tle_line1": "1 66818U 25278AD  25357.91668981  .00089436  00000+0  15172-2 0  9990",
        "tle_line2": "2 66818  43.0000 184.7502 0001545 278.8118  31.0387 15.50499726  4751"
      },
      "geometry": {
        "type": "Point",
        "coordinates": [
          -125.46894609464401,
          36.34871411860499
        ]
      }
    },
    {
      "type": "Feature",
      "properties": {
        "norad_id": 66819,
        "name": "STARLINK-35989",
        "group": "last-30-days",
        "lat": 37.872701320001845,
        "lon": -121.06268888260055,
        "alt_km": 409.74118358677515,
        "timestamp": "2025-12-24T07:45:04.932798+00:00",
        "meta_object_name": "STARLINK-35989",
        "meta_object_id": "2025-278AE",
        "meta_epoch": "2025-12-23T22:00:01.999584",
        "meta_mean_motion": 15.50496744,
        "meta_eccentricity": 0.00013376,
        "meta_inclination": 43.0001,
        "meta_ra_of_asc_node": 184.741,
        "meta_arg_of_pericenter": 279.0819,
        "meta_mean_anomaly": 34.6058,
        "meta_ephemeris_type": 0,
        "meta_classification_type": "U",
        "meta_norad_cat_id": 66819,
        "meta_element_set_no": 999,
        "meta_rev_at_epoch": 475,
        "meta_bstar": 0.0015437417,
        "meta_mean_motion_dot": 0.00091014,
        "meta_mean_motion_ddot": 0,
        "tle_line1": "1 66819U 25278AE  25357.91668981  .00091014  00000+0  15437-2 0  9990",
        "tle_line2": "2 66819  43.0001 184.7410 0001337 279.0819  34.6058 15.50496744  4752"
      },
      "geometry": {
        "type": "Point",
        "coordinates": [
          -121.06268888260055,
          37.872701320001845
        ]
      }
    },
    {
      "type": "Feature",
      "properties": {
        "norad_id": 66820,
        "name": "KOMPSAT-7",
        "group": "last-30-days",
        "lat": -48.664830227631526,
        "lon": 115.20392549263978,
        "alt_km": 563.9923805478447,
        "timestamp": "2025-12-24T07:45:04.932812+00:00",
        "meta_object_name": "KOMPSAT-7",
        "meta_object_id": "2025-279A",
        "meta_epoch": "2025-12-23T22:43:53.065344",
        "meta_mean_motion": 15.00665333,
        "meta_eccentricity": 0.00111761,
        "meta_inclination": 97.6456,
        "meta_ra_of_asc_node": 303.6187,
        "meta_arg_of_pericenter": 225.7448,
        "meta_mean_anomaly": 134.286,
        "meta_ephemeris_type": 0,
        "meta_classification_type": "U",
        "meta_norad_cat_id": 66820,
        "meta_element_set_no": 999,
        "meta_rev_at_epoch": 333,
        "meta_bstar": 0.00024589623,
        "meta_mean_motion_dot": 3.055e-05,
        "meta_mean_motion_ddot": 0,
        "tle_line1": "1 66820U 25279A   25357.94714196  .00003055  00000+0  24590-3 0  9995",
        "tle_line2": "2 66820  97.6456 303.6187 0011176 225.7448 134.2860 15.00665333  3332"
      },
      "geometry": {
        "type": "Point",
        "coordinates": [
          115.20392549263978,
          -48.664830227631526
        ]
      }
    }
  ]
}